{
  "type": "FeatureCollection",
  "features": [
    {
      "type": "Feature",
      "properties": {
        "norad_id": 59600,
        "name": "GSAT0227 (GALILEO 30)",
        "group": "gnss",
        "lat": 51.05513887538469,
        "lon": 166.38055088454058,
        "alt_km": 23208.983037973034,
        "timestamp": "2025-12-10T05:46:14.066004+00:00",
        "meta_object_name": "GSAT0227 (GALILEO 30)",
        "meta_object_id": "2024-079C",
        "meta_epoch": "2025-12-08T22:48:42.234912",
        "meta_mean_motion": 1.70474719,
        "meta_eccentricity": 0.0003262,
        "meta_inclination": 54.9946,
        "meta_ra_of_asc_node": 106.4003,
        "meta_arg_of_pericenter": 114.182,
        "meta_mean_anomaly": 245.816,
        "meta_ephemeris_type": 0,
        "meta_classification_type": "U",
        "meta_norad_cat_id": 59600,
        "meta_element_set_no": 999,
        "meta_rev_at_epoch": 1012,
        "meta_bstar": 0,
        "meta_mean_motion_dot": 9e-08,
        "meta_mean_motion_ddot": 0,
        "tle_line1": "1 59600U 24079C   25342.95048883  .00000009  00000+0  00000+0 0  9990",
        "tle_line2": "2 59600  54.9946 106.4003 0003262 114.1820 245.8160  1.70474719 10123"
      },
      "geometry": {
        "type": "Point",
        "coordinates": [
          166.38055088454058,
          51.05513887538469
        ]
      }
    },
    {
      "type": "Feature",
      "properties": {
        "norad_id": 61182,
        "name": "GSAT0232 (GALILEO 32)",
        "group": "gnss",
        "lat": -55.0647035660337,
        "lon": 129.83433869978538,
        "alt_km": 23224.574939816805,
        "timestamp": "2025-12-10T05:46:14.066015+00:00",
        "meta_object_name": "GSAT0232 (GALILEO 32)",
        "meta_object_id": "2024-167A",
        "meta_epoch": "2025-12-08T22:32:43.317600",
        "meta_mean_motion": 1.70473335,
        "meta_eccentricity": 0.0002034,
        "meta_inclination": 55.2421,
        "meta_ra_of_asc_node": 226.5351,
        "meta_arg_of_pericenter": 212.6306,
        "meta_mean_anomaly": 335.1093,
        "meta_ephemeris_type": 0,
        "meta_classification_type": "U",
        "meta_norad_cat_id": 61182,
        "meta_element_set_no": 999,
        "meta_rev_at_epoch": 763,
        "meta_bstar": 0,
        "meta_mean_motion_dot": 1.4e-07,
        "meta_mean_motion_ddot": 0,
        "tle_line1": "1 61182U 24167A   25342.93939025  .00000014  00000+0  00000+0 0  9997",
        "tle_line2": "2 61182  55.2421 226.5351 0002034 212.6306 335.1093  1.70473335  7635"
      },
      "geometry": {
        "type": "Point",
        "coordinates": [
          129.83433869978538,
          -55.0647035660337
        ]
      }
    },
    {
      "type": "Feature",
      "properties": {
        "norad_id": 61183,
        "name": "GSAT0226 (GALILEO 31)",
        "group": "gnss",
        "lat": 15.345196673030884,
        "lon": -122.5104114130415,
        "alt_km": 23220.908989608302,
        "timestamp": "2025-12-10T05:46:14.066028+00:00",
        "meta_object_name": "GSAT0226 (GALILEO 31)",
        "meta_object_id": "2024-167B",
        "meta_epoch": "2025-12-09T06:58:53.079168",
        "meta_mean_motion": 1.70473461,
        "meta_eccentricity": 8.01e-05,
        "meta_inclination": 55.2404,
        "meta_ra_of_asc_node": 226.5307,
        "meta_arg_of_pericenter": 119.131,
        "meta_mean_anomaly": 36.9899,
        "meta_ephemeris_type": 0,
        "meta_classification_type": "U",
        "meta_norad_cat_id": 61183,
        "meta_element_set_no": 999,
        "meta_rev_at_epoch": 761,
        "meta_bstar": 0,
        "meta_mean_motion_dot": 1.2e-07,
        "meta_mean_motion_ddot": 0,
        "tle_line1": "1 61183U 24167B   25343.29089212  .00000012  00000+0  00000+0 0  9990",
        "tle_line2": "2 61183  55.2404 226.5307 0000801 119.1310  36.9899  1.70473461  7612"
      },
      "geometry": {
        "type": "Point",
        "coordinates": [
          -122.5104114130415,
          15.345196673030884
        ]
      }
    },
    {
      "type": "Feature",
      "properties": {
        "norad_id": 61186,
        "name": "BEIDOU-3 M25 (C47)",
        "group": "gnss",
        "lat": -31.005712516952233,
        "lon": 154.02694743605545,
        "alt_km": 21528.658757442252,
        "timestamp": "2025-12-10T05:46:14.066040+00:00",
        "meta_object_name": "BEIDOU-3 M25 (C47)",
        "meta_object_id": "2024-168B",
        "meta_epoch": "2025-12-09T12:38:32.089056",
        "meta_mean_motion": 1.86229941,
        "meta_eccentricity": 0.0005432,
        "meta_inclination": 54.6447,
        "meta_ra_of_asc_node": 308.8306,
        "meta_arg_of_pericenter": 296.174,
        "meta_mean_anomaly": 164.5169,
        "meta_ephemeris_type": 0,
        "meta_classification_type": "U",
        "meta_norad_cat_id": 61186,
        "meta_element_set_no": 999,
        "meta_rev_at_epoch": 825,
        "meta_bstar": 0,
        "meta_mean_motion_dot": -7.8e-07,
        "meta_mean_motion_ddot": 0,
        "tle_line1": "1 61186U 24168B   25343.52676029 -.00000078  00000+0  00000+0 0  9991",
        "tle_line2": "2 61186  54.6447 308.8306 0005432 296.1740 164.5169  1.86229941  8254"
      },
      "geometry": {
        "type": "Point",
        "coordinates": [
          154.02694743605545,
          -31.005712516952233
        ]
      }
    },
    {
      "type": "Feature",
      "properties": {
        "norad_id": 61187,
        "name": "BEIDOU-3 M27 (C49)",
        "group": "gnss",
        "lat": -4.780345146952312,
        "lon": -54.63066076572984,
        "alt_km": 21522.911201688094,
        "timestamp": "2025-12-10T05:46:14.066051+00:00",
        "meta_object_name": "BEIDOU-3 M27 (C49)",
        "meta_object_id": "2024-168C",
        "meta_epoch": "2025-12-09T06:37:59.333088",
        "meta_mean_motion": 1.86230065,
        "meta_eccentricity": 0.0002332,
        "meta_inclination": 54.6404,
        "meta_ra_of_asc_node": 308.8229,
        "meta_arg_of_pericenter": 334.2122,
        "meta_mean_anomaly": 93.5537,
        "meta_ephemeris_type": 0,
        "meta_classification_type": "U",
        "meta_norad_cat_id": 61187,
        "meta_element_set_no": 999,
        "meta_rev_at_epoch": 572,
        "meta_bstar": 0,
        "meta_mean_motion_dot": -7.6e-07,
        "meta_mean_motion_ddot": 0,
        "tle_line1": "1 61187U 24168C   25343.27638117 -.00000076  00000+0  00000+0 0  9998",
        "tle_line2": "2 61187  54.6404 308.8229 0002332 334.2122  93.5537  1.86230065  5724"
      },
      "geometry": {
        "type": "Point",
        "coordinates": [
          -54.63066076572984,
          -4.780345146952312
        ]
      }
    },
    {
      "type": "Feature",
      "properties": {
        "norad_id": 62339,
        "name": "GPS BIII-7  (PRN 01)",
        "group": "gnss",
        "lat": -52.498638302130026,
        "lon": -131.87857341527751,
        "alt_km": 20186.412259476776,
        "timestamp": "2025-12-10T05:46:14.066062+00:00",
        "meta_object_name": "GPS BIII-7  (PRN 01)",
        "meta_object_id": "2024-242A",
        "meta_epoch": "2025-12-07T21:14:38.700960",
        "meta_mean_motion": 2.00567469,
        "meta_eccentricity": 0.00119344,
        "meta_inclination": 54.9247,
        "meta_ra_of_asc_node": 341.9365,
        "meta_arg_of_pericenter": 343.8064,
        "meta_mean_anomaly": 11.4848,
        "meta_ephemeris_type": 0,
        "meta_classification_type": "U",
        "meta_norad_cat_id": 62339,
        "meta_element_set_no": 999,
        "meta_rev_at_epoch": 741,
        "meta_bstar": 0,
        "meta_mean_motion_dot": -8.7e-07,
        "meta_mean_motion_ddot": 0,
        "tle_line1": "1 62339U 24242A   25341.88517015 -.00000087  00000+0  00000+0 0  9991",
        "tle_line2": "2 62339  54.9247 341.9365 0011934 343.8064  11.4848  2.00567469  7410"
      },
      "geometry": {
        "type": "Point",
        "coordinates": [
          -131.87857341527751,
          -52.498638302130026
        ]
      }
    },
    {
      "type": "Feature",
      "properties": {
        "norad_id": 62850,
        "name": "NVS-02 (IRNSS-1K)",
        "group": "gnss",
        "lat": -16.208363096308844,
        "lon": -80.7023185071462,
        "alt_km": 3462.261196216642,
        "timestamp": "2025-12-10T05:46:14.066076+00:00",
        "meta_object_name": "NVS-02 (IRNSS-1K)",
        "meta_object_id": "2025-020A",
        "meta_epoch": "2025-12-09T07:57:09.339840",
        "meta_mean_motion": 2.17590953,
        "meta_eccentricity": 0.7347783,
        "meta_inclination": 20.9922,
        "meta_ra_of_asc_node": 328.8944,
        "meta_arg_of_pericenter": 24.0187,
        "meta_mean_anomaly": 357.463,
        "meta_ephemeris_type": 0,
        "meta_classification_type": "U",
        "meta_norad_cat_id": 62850,
        "meta_element_set_no": 999,
        "meta_rev_at_epoch": 684,
        "meta_bstar": 0.00037915,
        "meta_mean_motion_dot": 2.45e-06,
        "meta_mean_motion_ddot": 0,
        "tle_line1": "1 62850U 25020A   25343.33135810  .00000245  00000+0  37915-3 0  9999",
        "tle_line2": "2 62850  20.9922 328.8944 7347783  24.0187 357.4630  2.17590953  6843"
      },
      "geometry": {
        "type": "Point",
        "coordinates": [
          -80.7023185071462,
          -16.208363096308844
        ]
      }
    }
  ]
}